{
  "norad_id": 66547,
  "name": "SHIJIAN-30C (SJ-30C)",
  "history": [
    {
      "epoch": "2026-03-28T18:56:49.866720",
      "apogee_km": 526.4461218902543,
      "perigee_km": 512.5461495478175,
      "latitude_deg": -36.26541270983584,
      "longitude_deg": -169.51125920005143,
      "semi_major_axis_km": 6897.633135719036,
      "eccentricity": 0.00100759,
      "inclination_deg": 51.7975,
      "raan_deg": 196.0245,
      "arg_perigee_deg": 351.9789,
      "mean_anomaly_deg": 8.1025,
      "mean_motion_rev_day": 15.15488427
    }
  ]
}